<?xml version="1.0" encoding="UTF-8"?>
<ndm xmlns:xsi="http://www.w3.org/2001/XMLSchema-instance" xsi:noNamespaceSchemaLocation="https://sanaregistry.org/r/ndmxml_unqualified/ndmxml-2.0.0-master-2.0.xsd">
<omm id="CCSDS_OMM_VERS" version="2.0">
<header><CREATION_DATE/><ORIGINATOR/></header><body><segment><metadata><OBJECT_NAME>KUIPER-00136</OBJECT_NAME><OBJECT_ID>2025-228R</OBJECT_ID><CENTER_NAME>EARTH</CENTER_NAME><REF_FRAME>TEME</REF_FRAME><TIME_SYSTEM>UTC</TIME_SYSTEM><MEAN_ELEMENT_THEORY>SGP4</MEAN_ELEMENT_THEORY></metadata><data><meanElements><EPOCH>2025-12-30T22:00:03.000096</EPOCH><MEAN_MOTION>15.08645555</MEAN_MOTION><ECCENTRICITY>.00053887</ECCENTRICITY><INCLINATION>51.8893</INCLINATION><RA_OF_ASC_NODE>294.5451</RA_OF_ASC_NODE><ARG_OF_PERICENTER>111.5116</ARG_OF_PERICENTER><MEAN_ANOMALY>326.8774</MEAN_ANOMALY></meanElements><tleParameters><EPHEMERIS_TYPE>0</EPHEMERIS_TYPE><CLASSIFICATION_TYPE>U</CLASSIFICATION_TYPE><NORAD_CAT_ID>65962</NORAD_CAT_ID><ELEMENT_SET_NO>999</ELEMENT_SET_NO><REV_AT_EPOCH>283</REV_AT_EPOCH><BSTAR>-.92168503E-1</BSTAR><MEAN_MOTION_DOT>-.1345457E-1</MEAN_MOTION_DOT><MEAN_MOTION_DDOT>0</MEAN_MOTION_DDOT></tleParameters></data></segment></body></omm>
<omm id="CCSDS_OMM_VERS" version="2.0">
<header><CREATION_DATE/><ORIGINATOR/></header><body><segment><metadata><OBJECT_NAME>KUIPER-00137</OBJECT_NAME><OBJECT_ID>2025-228S</OBJECT_ID><CENTER_NAME>EARTH</CENTER_NAME><REF_FRAME>TEME</REF_FRAME><TIME_SYSTEM>UTC</TIME_SYSTEM><MEAN_ELEMENT_THEORY>SGP4</MEAN_ELEMENT_THEORY></metadata><data><meanElements><EPOCH>2025-12-30T22:00:03.000096</EPOCH><MEAN_MOTION>15.19528940</MEAN_MOTION><ECCENTRICITY>.00060448</ECCENTRICITY><INCLINATION>51.8852</INCLINATION><RA_OF_ASC_NODE>293.5338</RA_OF_ASC_NODE><ARG_OF_PERICENTER>91.3864</ARG_OF_PERICENTER><MEAN_ANOMALY>203.5335</MEAN_ANOMALY></meanElements><tleParameters><EPHEMERIS_TYPE>0</EPHEMERIS_TYPE><CLASSIFICATION_TYPE>U</CLASSIFICATION_TYPE><NORAD_CAT_ID>65963</NORAD_CAT_ID><ELEMENT_SET_NO>999</ELEMENT_SET_NO><REV_AT_EPOCH>335</REV_AT_EPOCH><BSTAR>-.4365624E-1</BSTAR><MEAN_MOTION_DOT>-.875021E-2</MEAN_MOTION_DOT><MEAN_MOTION_DDOT>0</MEAN_MOTION_DDOT></tleParameters></data></segment></body></omm>
<omm id="CCSDS_OMM_VERS" version="2.0">
<header><CREATION_DATE/><ORIGINATOR/></header><body><segment><metadata><OBJECT_NAME>KUIPER-00138</OBJECT_NAME><OBJECT_ID>2025-228T</OBJECT_ID><CENTER_NAME>EARTH</CENTER_NAME><REF_FRAME>TEME</REF_FRAME><TIME_SYSTEM>UTC</TIME_SYSTEM><MEAN_ELEMENT_THEORY>SGP4</MEAN_ELEMENT_THEORY></metadata><data><meanElements><EPOCH>2025-12-30T22:00:03.000096</EPOCH><MEAN_MOTION>15.29838766</MEAN_MOTION><ECCENTRICITY>.00075377</ECCENTRICITY><INCLINATION>51.8809</INCLINATION><RA_OF_ASC_NODE>293.0625</RA_OF_ASC_NODE><ARG_OF_PERICENTER>92.0034</ARG_OF_PERICENTER><MEAN_ANOMALY>62.8425</MEAN_ANOMALY></meanElements><tleParameters><EPHEMERIS_TYPE>0</EPHEMERIS_TYPE><CLASSIFICATION_TYPE>U</CLASSIFICATION_TYPE><NORAD_CAT_ID>65964</NORAD_CAT_ID><ELEMENT_SET_NO>999</ELEMENT_SET_NO><REV_AT_EPOCH>480</REV_AT_EPOCH><BSTAR>-.30819699E-1</BSTAR><MEAN_MOTION_DOT>-.835715E-2</MEAN_MOTION_DOT><MEAN_MOTION_DDOT>0</MEAN_MOTION_DDOT></tleParameters></data></segment></body></omm>
<omm id="CCSDS_OMM_VERS" version="2.0">
<header><CREATION_DATE/><ORIGINATOR/></header><body><segment><metadata><OBJECT_NAME>KUIPER-00140</OBJECT_NAME><OBJECT_ID>2025-228U</OBJECT_ID><CENTER_NAME>EARTH</CENTER_NAME><REF_FRAME>TEME</REF_FRAME><TIME_SYSTEM>UTC</TIME_SYSTEM><MEAN_ELEMENT_THEORY>SGP4</MEAN_ELEMENT_THEORY></metadata><data><meanElements><EPOCH>2025-12-30T22:00:03.000096</EPOCH><MEAN_MOTION>15.18782360</MEAN_MOTION><ECCENTRICITY>.00072531</ECCENTRICITY><INCLINATION>51.8851</INCLINATION><RA_OF_ASC_NODE>293.8571</RA_OF_ASC_NODE><ARG_OF_PERICENTER>83.0280</ARG_OF_PERICENTER><MEAN_ANOMALY>4.5114</MEAN_ANOMALY></meanElements><tleParameters><EPHEMERIS_TYPE>0</EPHEMERIS_TYPE><CLASSIFICATION_TYPE>U</CLASSIFICATION_TYPE><NORAD_CAT_ID>65965</NORAD_CAT_ID><ELEMENT_SET_NO>999</ELEMENT_SET_NO><REV_AT_EPOCH>514</REV_AT_EPOCH><BSTAR>-.18430525E-3</BSTAR><MEAN_MOTION_DOT>-.4206E-4</MEAN_MOTION_DOT><MEAN_MOTION_DDOT>0</MEAN_MOTION_DDOT></tleParameters></data></segment></body></omm>
<omm id="CCSDS_OMM_VERS" version="2.0">
<header><CREATION_DATE/><ORIGINATOR/></header><body><segment><metadata><OBJECT_NAME>KUIPER-00141</OBJECT_NAME><OBJECT_ID>2025-228V</OBJECT_ID><CENTER_NAME>EARTH</CENTER_NAME><REF_FRAME>TEME</REF_FRAME><TIME_SYSTEM>UTC</TIME_SYSTEM><MEAN_ELEMENT_THEORY>SGP4</MEAN_ELEMENT_THEORY></metadata><data><meanElements><EPOCH>2025-12-30T22:00:03.000096</EPOCH><MEAN_MOTION>15.34172004</MEAN_MOTION><ECCENTRICITY>.00051369</ECCENTRICITY><INCLINATION>51.8798</INCLINATION><RA_OF_ASC_NODE>292.6328</RA_OF_ASC_NODE><ARG_OF_PERICENTER>99.1780</ARG_OF_PERICENTER><MEAN_ANOMALY>254.0653</MEAN_ANOMALY></meanElements><tleParameters><EPHEMERIS_TYPE>0</EPHEMERIS_TYPE><CLASSIFICATION_TYPE>U</CLASSIFICATION_TYPE><NORAD_CAT_ID>65966</NORAD_CAT_ID><ELEMENT_SET_NO>999</ELEMENT_SET_NO><REV_AT_EPOCH>433</REV_AT_EPOCH><BSTAR>-.2524399E-1</BSTAR><MEAN_MOTION_DOT>-.787647E-2</MEAN_MOTION_DOT><MEAN_MOTION_DDOT>0</MEAN_MOTION_DDOT></tleParameters></data></segment></body></omm>
<omm id="CCSDS_OMM_VERS" version="2.0">
<header><CREATION_DATE/><ORIGINATOR/></header><body><segment><metadata><OBJECT_NAME>KUIPER-00146</OBJECT_NAME><OBJECT_ID>2025-228W</OBJECT_ID><CENTER_NAME>EARTH</CENTER_NAME><REF_FRAME>TEME</REF_FRAME><TIME_SYSTEM>UTC</TIME_SYSTEM><MEAN_ELEMENT_THEORY>SGP4</MEAN_ELEMENT_THEORY></metadata><data><meanElements><EPOCH>2025-12-30T22:00:03.000096</EPOCH><MEAN_MOTION>15.29952659</MEAN_MOTION><ECCENTRICITY>.00071966</ECCENTRICITY><INCLINATION>51.8814</INCLINATION><RA_OF_ASC_NODE>293.0631</RA_OF_ASC_NODE><ARG_OF_PERICENTER>94.6433</ARG_OF_PERICENTER><MEAN_ANOMALY>45.3377</MEAN_ANOMALY></meanElements><tleParameters><EPHEMERIS_TYPE>0</EPHEMERIS_TYPE><CLASSIFICATION_TYPE>U</CLASSIFICATION_TYPE><NORAD_CAT_ID>65967</NORAD_CAT_ID><ELEMENT_SET_NO>999</ELEMENT_SET_NO><REV_AT_EPOCH>482</REV_AT_EPOCH><BSTAR>-.30121135E-1</BSTAR><MEAN_MOTION_DOT>-.820747E-2</MEAN_MOTION_DOT><MEAN_MOTION_DDOT>0</MEAN_MOTION_DDOT></tleParameters></data></segment></body></omm>
<omm id="CCSDS_OMM_VERS" version="2.0">
<header><CREATION_DATE/><ORIGINATOR/></header><body><segment><metadata><OBJECT_NAME>KUIPER-00149</OBJECT_NAME><OBJECT_ID>2025-228X</OBJECT_ID><CENTER_NAME>EARTH</CENTER_NAME><REF_FRAME>TEME</REF_FRAME><TIME_SYSTEM>UTC</TIME_SYSTEM><MEAN_ELEMENT_THEORY>SGP4</MEAN_ELEMENT_THEORY></metadata><data><meanElements><EPOCH>2025-12-30T04:54:25.534944</EPOCH><MEAN_MOTION>15.36594840</MEAN_MOTION><ECCENTRICITY>.00049818</ECCENTRICITY><INCLINATION>51.8799</INCLINATION><RA_OF_ASC_NODE>296.1139</RA_OF_ASC_NODE><ARG_OF_PERICENTER>76.9091</ARG_OF_PERICENTER><MEAN_ANOMALY>283.2452</MEAN_ANOMALY></meanElements><tleParameters><EPHEMERIS_TYPE>0</EPHEMERIS_TYPE><CLASSIFICATION_TYPE>U</CLASSIFICATION_TYPE><NORAD_CAT_ID>65968</NORAD_CAT_ID><ELEMENT_SET_NO>999</ELEMENT_SET_NO><REV_AT_EPOCH>1310</REV_AT_EPOCH><BSTAR>.156896E-2</BSTAR><MEAN_MOTION_DOT>.56983E-3</MEAN_MOTION_DOT><MEAN_MOTION_DDOT>0</MEAN_MOTION_DDOT></tleParameters></data></segment></body></omm>
<omm id="CCSDS_OMM_VERS" version="2.0">
<header><CREATION_DATE/><ORIGINATOR/></header><body><segment><metadata><OBJECT_NAME>KUIPER-00154</OBJECT_NAME><OBJECT_ID>2025-228Y</OBJECT_ID><CENTER_NAME>EARTH</CENTER_NAME><REF_FRAME>TEME</REF_FRAME><TIME_SYSTEM>UTC</TIME_SYSTEM><MEAN_ELEMENT_THEORY>SGP4</MEAN_ELEMENT_THEORY></metadata><data><meanElements><EPOCH>2025-12-30T22:11:49.169760</EPOCH><MEAN_MOTION>15.36520830</MEAN_MOTION><ECCENTRICITY>.00060864</ECCENTRICITY><INCLINATION>51.8801</INCLINATION><RA_OF_ASC_NODE>292.6878</RA_OF_ASC_NODE><ARG_OF_PERICENTER>77.8799</ARG_OF_PERICENTER><MEAN_ANOMALY>282.2869</MEAN_ANOMALY></meanElements><tleParameters><EPHEMERIS_TYPE>0</EPHEMERIS_TYPE><CLASSIFICATION_TYPE>U</CLASSIFICATION_TYPE><NORAD_CAT_ID>65969</NORAD_CAT_ID><ELEMENT_SET_NO>999</ELEMENT_SET_NO><REV_AT_EPOCH>1321</REV_AT_EPOCH><BSTAR>.20702121E-2</BSTAR><MEAN_MOTION_DOT>.75329E-3</MEAN_MOTION_DOT><MEAN_MOTION_DDOT>0</MEAN_MOTION_DDOT></tleParameters></data></segment></body></omm>

</ndm>
