KUIPER-00136            
1 65962U 25228R   25364.91670139 -.01345457  00000+0 -92169-1 0  9991
2 65962  51.8893 294.5451 0005388 111.5116 326.8774 15.08645555  2838
KUIPER-00137            
1 65963U 25228S   25364.91670139 -.00875021  00000+0 -43656-1 0  9993
2 65963  51.8852 293.5338 0006044  91.3864 203.5335 15.19528940  3354
KUIPER-00138            
1 65964U 25228T   25364.91670139 -.00835715  00000+0 -30820-1 0  9999
2 65964  51.8809 293.0625 0007537  92.0034  62.8425 15.29838766  4804
KUIPER-00140            
1 65965U 25228U   25364.91670139 -.00004206  00000+0 -18431-3 0  9999
2 65965  51.8851 293.8571 0007253  83.0280   4.5114 15.18782360  5140
KUIPER-00141            
1 65966U 25228V   25364.91670139 -.00787647  00000+0 -25244-1 0  9995
2 65966  51.8798 292.6328 0005136  99.1780 254.0653 15.34172004  4335
KUIPER-00146            
1 65967U 25228W   25364.91670139 -.00820747  00000+0 -30121-1 0  9995
2 65967  51.8814 293.0631 0007196  94.6433  45.3377 15.29952659  4824
KUIPER-00149            
1 65968U 25228X   25364.20446221  .00056983  00000+0  15690-2 0  9997
2 65968  51.8799 296.1139 0004981  76.9091 283.2452 15.36594840 13106
KUIPER-00154            
1 65969U 25228Y   25364.92487465  .00075329  00000+0  20702-2 0  9997
2 65969  51.8801 292.6878 0006086  77.8799 282.2869 15.36520830 13216
